{
  "type": "FeatureCollection",
  "features": [
    {
      "type": "Feature",
      "properties": {
        "norad_id": 43262,
        "name": "GAOFEN-1 04",
        "group": "resource",
        "lat": 41.45942965473953,
        "lon": 46.87159412767462,
        "alt_km": 636.8539875316037,
        "timestamp": "2025-12-22T05:49:03.139961+00:00",
        "meta_object_name": "GAOFEN-1 04",
        "meta_object_id": "2018-031D",
        "meta_epoch": "2025-12-21T21:29:43.554336",
        "meta_mean_motion": 14.76421569,
        "meta_eccentricity": 6.84e-05,
        "meta_inclination": 98.0799,
        "meta_ra_of_asc_node": 53.7346,
        "meta_arg_of_pericenter": 53.2258,
        "meta_mean_anomaly": 306.9014,
        "meta_ephemeris_type": 0,
        "meta_classification_type": "U",
        "meta_norad_cat_id": 43262,
        "meta_element_set_no": 999,
        "meta_rev_at_epoch": 41652,
        "meta_bstar": 3.2498e-05,
        "meta_mean_motion_dot": 1.74e-06,
        "meta_mean_motion_ddot": 0,
        "tle_line1": "1 43262U 18031D   25355.89564299  .00000174  00000+0  32498-4 0  9993",
        "tle_line2": "2 43262  98.0799  53.7346 0000684  53.2258 306.9014 14.76421569416528"
      },
      "geometry": {
        "type": "Point",
        "coordinates": [
          46.87159412767462,
          41.45942965473953
        ]
      }
    },
    {
      "type": "Feature",
      "properties": {
        "norad_id": 43437,
        "name": "SENTINEL-3B",
        "group": "resource",
        "lat": -48.426031466038786,
        "lon": 71.14383531207424,
        "alt_km": 810.3672798556781,
        "timestamp": "2025-12-22T05:49:03.139972+00:00",
        "meta_object_name": "SENTINEL-3B",
        "meta_object_id": "2018-039A",
        "meta_epoch": "2025-12-21T16:34:57.699840",
        "meta_mean_motion": 14.26737274,
        "meta_eccentricity": 0.0001625,
        "meta_inclination": 98.6255,
        "meta_ra_of_asc_node": 60.7475,
        "meta_arg_of_pericenter": 92.8755,
        "meta_mean_anomaly": 267.2611,
        "meta_ephemeris_type": 0,
        "meta_classification_type": "U",
        "meta_norad_cat_id": 43437,
        "meta_element_set_no": 999,
        "meta_rev_at_epoch": 39881,
        "meta_bstar": 6.8652e-05,
        "meta_mean_motion_dot": 1.23e-06,
        "meta_mean_motion_ddot": 0,
        "tle_line1": "1 43437U 18039A   25355.69094560  .00000123  00000+0  68652-4 0  9997",
        "tle_line2": "2 43437  98.6255  60.7475 0001625  92.8755 267.2611 14.26737274398814"
      },
      "geometry": {
        "type": "Point",
        "coordinates": [
          71.14383531207424,
          -48.426031466038786
        ]
      }
    },
    {
      "type": "Feature",
      "properties": {
        "norad_id": 43461,
        "name": "GAOFEN-5 01",
        "group": "resource",
        "lat": 10.23585380278129,
        "lon": -42.15915635467585,
        "alt_km": 693.4037061339122,
        "timestamp": "2025-12-22T05:49:03.139982+00:00",
        "meta_object_name": "GAOFEN-5 01",
        "meta_object_id": "2018-043A",
        "meta_epoch": "2025-12-21T19:54:15.433056",
        "meta_mean_motion": 14.60418992,
        "meta_eccentricity": 5.17e-05,
        "meta_inclination": 98.434,
        "meta_ra_of_asc_node": 318.9558,
        "meta_arg_of_pericenter": 276.6203,
        "meta_mean_anomaly": 83.4937,
        "meta_ephemeris_type": 0,
        "meta_classification_type": "U",
        "meta_norad_cat_id": 43461,
        "meta_element_set_no": 999,
        "meta_rev_at_epoch": 40580,
        "meta_bstar": 8.7495e-05,
        "meta_mean_motion_dot": 3.75e-06,
        "meta_mean_motion_ddot": 0,
        "tle_line1": "1 43461U 18043A   25355.82934529  .00000375  00000+0  87495-4 0  9997",
        "tle_line2": "2 43461  98.4340 318.9558 0000517 276.6203  83.4937 14.60418992405801"
      },
      "geometry": {
        "type": "Point",
        "coordinates": [
          -42.15915635467585,
          10.23585380278129
        ]
      }
    },
    {
      "type": "Feature",
      "properties": {
        "norad_id": 43484,
        "name": "GAOFEN-6",
        "group": "resource",
        "lat": -17.44882886259619,
        "lon": -122.28006129476769,
        "alt_km": 653.648427434613,
        "timestamp": "2025-12-22T05:49:03.139993+00:00",
        "meta_object_name": "GAOFEN-6",
        "meta_object_id": "2018-048A",
        "meta_epoch": "2025-12-21T20:47:40.581024",
        "meta_mean_motion": 14.76579212,
        "meta_eccentricity": 0.0012768,
        "meta_inclination": 97.8025,
        "meta_ra_of_asc_node": 59.8268,
        "meta_arg_of_pericenter": 36.6855,
        "meta_mean_anomaly": 323.5227,
        "meta_ephemeris_type": 0,
        "meta_classification_type": "U",
        "meta_norad_cat_id": 43484,
        "meta_element_set_no": 999,
        "meta_rev_at_epoch": 40722,
        "meta_bstar": 3.5362e-05,
        "meta_mean_motion_dot": 1.98e-06,
        "meta_mean_motion_ddot": 0,
        "tle_line1": "1 43484U 18048A   25355.86644191  .00000198  00000+0  35362-4 0  9993",
        "tle_line2": "2 43484  97.8025  59.8268 0012768  36.6855 323.5227 14.76579212407224"
      },
      "geometry": {
        "type": "Point",
        "coordinates": [
          -122.28006129476769,
          -17.44882886259619
        ]
      }
    },
    {
      "type": "Feature",
      "properties": {
        "norad_id": 43585,
        "name": "GAOFEN-11 01",
        "group": "resource",
        "lat": -30.340731798316614,
        "lon": 63.314900846647646,
        "alt_km": 423.25221881026846,
        "timestamp": "2025-12-22T05:49:03.140003+00:00",
        "meta_object_name": "GAOFEN-11 01",
        "meta_object_id": "2018-063A",
        "meta_epoch": "2025-12-21T20:38:58.567776",
        "meta_mean_motion": 15.49450164,
        "meta_eccentricity": 0.0003889,
        "meta_inclination": 97.155,
        "meta_ra_of_asc_node": 58.7194,
        "meta_arg_of_pericenter": 266.8126,
        "meta_mean_anomaly": 93.2681,
        "meta_ephemeris_type": 0,
        "meta_classification_type": "U",
        "meta_norad_cat_id": 43585,
        "meta_element_set_no": 999,
        "meta_rev_at_epoch": 41283,
        "meta_bstar": 0.0001414,
        "meta_mean_motion_dot": 7.682e-05,
        "meta_mean_motion_ddot": 0,
        "tle_line1": "1 43585U 18063A   25355.86040009  .00007682  00000+0  14140-3 0  9995",
        "tle_line2": "2 43585  97.1550  58.7194 0003889 266.8126  93.2681 15.49450164412833"
      },
      "geometry": {
        "type": "Point",
        "coordinates": [
          63.314900846647646,
          -30.340731798316614
        ]
      }
    },
    {
      "type": "Feature",
      "properties": {
        "norad_id": 43613,
        "name": "ICESAT-2",
        "group": "resource",
        "lat": 62.997253025758994,
        "lon": -120.6391489748911,
        "alt_km": 473.81972523447985,
        "timestamp": "2025-12-22T05:49:03.140014+00:00",
        "meta_object_name": "ICESAT-2",
        "meta_object_id": "2018-070A",
        "meta_epoch": "2025-12-21T18:32:31.267104",
        "meta_mean_motion": 15.28257748,
        "meta_eccentricity": 0.0002981,
        "meta_inclination": 92.0044,
        "meta_ra_of_asc_node": 243.175,
        "meta_arg_of_pericenter": 120.3502,
        "meta_mean_anomaly": 239.8042,
        "meta_ephemeris_type": 0,
        "meta_classification_type": "U",
        "meta_norad_cat_id": 43613,
        "meta_element_set_no": 999,
        "meta_rev_at_epoch": 40536,
        "meta_bstar": 0.00039019,
        "meta_mean_motion_dot": 0.00010741,
        "meta_mean_motion_ddot": 0,
        "tle_line1": "1 43613U 18070A   25355.77258411  .00010741  00000+0  39019-3 0  9995",
        "tle_line2": "2 43613  92.0044 243.1750 0002981 120.3502 239.8042 15.28257748405368"
      },
      "geometry": {
        "type": "Point",
        "coordinates": [
          -120.6391489748911,
          62.997253025758994
        ]
      }
    },
    {
      "type": "Feature",
      "properties": {
        "norad_id": 43719,
        "name": "HYSIS",
        "group": "resource",
        "lat": -55.1533175677682,
        "lon": 70.84105734254874,
        "alt_km": 640.7823040735339,
        "timestamp": "2025-12-22T05:49:03.140024+00:00",
        "meta_object_name": "HYSIS",
        "meta_object_id": "2018-096A",
        "meta_epoch": "2025-12-21T20:19:33.018816",
        "meta_mean_motion": 14.78665619,
        "meta_eccentricity": 9.97e-05,
        "meta_inclination": 98.0091,
        "meta_ra_of_asc_node": 58.7802,
        "meta_arg_of_pericenter": 51.7434,
        "meta_mean_anomaly": 308.3867,
        "meta_ephemeris_type": 0,
        "meta_classification_type": "U",
        "meta_norad_cat_id": 43719,
        "meta_element_set_no": 999,
        "meta_rev_at_epoch": 38121,
        "meta_bstar": 4.9892e-05,
        "meta_mean_motion_dot": 3.14e-06,
        "meta_mean_motion_ddot": 0,
        "tle_line1": "1 43719U 18096A   25355.84690994  .00000314  00000+0  49892-4 0  9990",
        "tle_line2": "2 43719  98.0091  58.7802 0000997  51.7434 308.3867 14.78665619381215"
      },
      "geometry": {
        "type": "Point",
        "coordinates": [
          70.84105734254874,
          -55.1533175677682
        ]
      }
    }
  ]
}